LAPAN-TUBSAT
1 29709U 07001A   18094.44775743  .00000028  00000-0  99587-5 0  9991
2 29709  97.7457  64.1195 0011747 215.5365 144.5080 14.82116740607123
